IRIDIUM 26              
1 24903U 97043A   25213.65176404  .00000321  00000+0  10119-3 0  9997
2 24903  86.3930  91.5210 0001966  83.0855 277.0566 14.37173404463277
IRIDIUM 22              
1 24907U 97043E   25213.20111376  .00000297  00000+0  95503-4 0  9992
2 24907  86.3938  95.2904 0002063  87.8315 272.3118 14.35982071463224
DUMMY MASS 1            
1 24925U 97048A   25213.90795942  .00000390  00000+0  40424-4 0  9997
2 24925  86.3353 114.1954 0006449   5.9955 354.1346 14.87017597511926
DUMMY MASS 2            
1 24926U 97048B   25213.20468365  .00000408  00000+0  42613-4 0  9999
2 24926  86.3356 116.1364 0007798  17.0616 343.0870 14.86769068511838
IRIDIUM 29              
1 24944U 97051A   25213.27765649  .00000405  00000+0  13140-3 0  9994
2 24944  86.3979 124.9935 0002332  88.7042 271.4422 14.36498361459745
IRIDIUM 33              
1 24946U 97051C   25213.23927059  .00000303  00000+0  99645-4 0  9999
2 24946  86.3895 124.2736 0005962 300.9207  59.1403 14.34916084459206
IRIDIUM 28              
1 24948U 97051E   25213.29233103  .00000334  00000+0  10512-3 0  9996
2 24948  86.3982 122.4775 0001775  76.2164 283.9231 14.37412050460329
IRIDIUM 36              
1 24967U 97056C   25213.38782704  .00000383  00000+0  12091-3 0  9996
2 24967  86.4018 154.0262 0002016  89.3706 270.7722 14.37639045458713
